COMMENT,ORIGINATOR,NORAD_CAT_ID,OBJECT_NAME,OBJECT_TYPE,CLASSIFICATION_TYPE,INTLDES,EPOCH,EPOCH_MICROSECONDS,MEAN_MOTION,ECCENTRICITY,INCLINATION,RA_OF_ASC_NODE,ARG_OF_PERICENTER,MEAN_ANOMALY,EPHEMERIS_TYPE,ELEMENT_SET_NO,REV_AT_EPOCH,BSTAR,MEAN_MOTION_DOT,MEAN_MOTION_DDOT,FILE,TLE_LINE0,TLE_LINE1,TLE_LINE2,OBJECT_ID,OBJECT_NUMBER,SEMIMAJOR_AXIS,PERIOD,APOGEE,PERIGEE,DECAYED
GENERATED VIA SPACETRACK.ORG API,18 SPCS,4084,SL-8 DEB,DEBRIS,U,69070C,2024-04-12 04:26:15,89568,14.46528217,0.0020722,74.07,359.949,96.3562,263.9957,0,999,88064,6.3195e-05,2.02e-06,0,4276832,0 SL-8 DEB,1 04084U 69070C   24103.18489687  .00000202  00000-0  63195-4 0  9991,2 04084  74.0700 359.9490 0020722  96.3562 263.9957 14.46528217880646,1969-070C,4084,7115.147,99.549,751.756,722.268,0
GENERATED VIA SPACETRACK.ORG API,18 SPCS,4084,SL-8 DEB,DEBRIS,U,69070C,2024-04-13 03:40:30,41472,14.46528777,0.0020725,74.07,358.1447,94.1961,266.1567,0,999,88076,6.698e-05,2.15e-06,0,4277567,0 SL-8 DEB,1  4084U 69070C   24104.15312548  .00000215  00000-0  66980-4 0  9999,2  4084  74.0700 358.1447 0020725  94.1961 266.1567 14.46528777880767,1969-070C,4084,7115.146,99.549,751.757,722.264,0
GENERATED VIA SPACETRACK.ORG API,18 SPCS,4084,SL-8 DEB,DEBRIS,U,69070C,2024-04-13 03:40:30,41472,14.46528777,0.0020725,74.07,358.1447,94.1961,266.1567,0,999,88078,6.698e-05,2.15e-06,0,4278498,0 SL-8 DEB,1 04084U 69070C   24104.15312548  .00000215  00000-0  66980-4 0  9999,2 04084  74.0700 358.1447 0020725  94.1961 266.1567 14.46528777880789,1969-070C,4084,7115.146,99.549,751.757,722.264,0
GENERATED VIA SPACETRACK.ORG API,18 SPCS,4084,SL-8 DEB,DEBRIS,U,69070C,2024-04-13 20:16:23,542752,14.46529255,0.0020721,74.0699,356.856,92.6527,267.7004,0,999,88088,7.0729e-05,2.29e-06,0,4278987,0 SL-8 DEB,1 04084U 69070C   24104.84471693  .00000229  00000-0  70729-4 0  9993,2 04084  74.0699 356.8560 0020721  92.6527 267.7004 14.46529255880880,1969-070C,4084,7115.144,99.549,751.752,722.266,0
GENERATED VIA SPACETRACK.ORG API,18 SPCS,4084,SL-8 DEB,DEBRIS,U,69070C,2024-04-14 19:30:38,423808,14.46530005,0.002071,74.0698,355.0518,90.4761,269.8771,0,999,88102,8.222e-05,2.7e-06,0,4280633,0 SL-8 DEB,1 04084U 69070C   24105.81294472  .00000270  00000-0  82220-4 0  9994,2 04084  74.0698 355.0518 0020710  90.4761 269.8771 14.46530005881023,1969-070C,4084,7115.142,99.549,751.742,722.271,0
GENERATED VIA SPACETRACK.ORG API,18 SPCS,4084,SL-8 DEB,DEBRIS,U,69070C,2024-04-15 15:25:42,574368,14.46530606,0.0020708,74.0698,353.5053,88.6087,271.7444,0,999,88114,8.8296e-05,2.92e-06,0,4281855,0 SL-8 DEB,1 04084U 69070C   24106.64285387  .00000292  00000-0  88296-4 0  9994,2 04084  74.0698 353.5053 0020708  88.6087 271.7444 14.46530606881146,1969-070C,4084,7115.14,99.549,751.739,722.271,0
GENERATED VIA SPACETRACK.ORG API,18 SPCS,4084,SL-8 DEB,DEBRIS,U,69070C,2024-04-15 20:24:28,599264,14.46530821,0.0020704,74.0698,353.1186,88.149,272.204,0,999,88115,9.1754e-05,3.05e-06,0,4282108,0 SL-8 DEB,1  4084U 69070C   24106.85033101  .00000305  00000-0  91754-4 0  9990,2  4084  74.0698 353.1186 0020704  88.1490 272.2040 14.46530821881156,1969-070C,4084,7115.139,99.549,751.735,722.273,0
GENERATED VIA SPACETRACK.ORG API,18 SPCS,4084,SL-8 DEB,DEBRIS,U,69070C,2024-04-15 20:24:28,599264,14.46530821,0.0020704,74.0698,353.1186,88.149,272.204,0,999,88117,9.1754e-05,3.05e-06,0,4282499,0 SL-8 DEB,1 04084U 69070C   24106.85033101  .00000305  00000-0  91754-4 0  9990,2 04084  74.0698 353.1186 0020704  88.1490 272.2040 14.46530821881178,1969-070C,4084,7115.139,99.549,751.735,722.273,0
GENERATED VIA SPACETRACK.ORG API,18 SPCS,4084,SL-8 DEB,DEBRIS,U,69070C,2024-04-16 09:41:11,345856,14.46531442,0.0020708,74.0697,352.0875,86.8963,273.4565,0,999,88125,0.00010777,3.63e-06,0,4283936,0 SL-8 DEB,1 04084U 69070C   24107.40360354  .00000363  00000-0  10777-3 0  9994,2 04084  74.0697 352.0875 0020708  86.8963 273.4565 14.46531442881258,1969-070C,4084,7115.137,99.548,751.736,722.268,0
GENERATED VIA SPACETRACK.ORG API,18 SPCS,4084,SL-8 DEB,DEBRIS,U,69070C,2024-04-16 19:38:43,374912,14.46531928,0.0020709,74.0697,351.3143,85.9886,274.3639,0,999,88131,0.00011595,3.92e-06,0,4284483,0 SL-8 DEB,1 04084U 69070C   24107.81855758  .00000392  00000-0  11595-3 0  9997,2 04084  74.0697 351.3143 0020709  85.9886 274.3639 14.46531928881311,1969-070C,4084,7115.135,99.548,751.735,722.265,0
GENERATED VIA SPACETRACK.ORG API,18 SPCS,4084,SL-8 DEB,DEBRIS,U,69070C,2024-04-17 02:17:04,726176,14.46532185,0.0020712,74.0696,350.7987,85.3668,274.9856,0,999,88135,0.00011898,4.03e-06,0,4285817,0 SL-8 DEB,1 04084U 69070C   24108.09519359  .00000403  00000-0  11898-3 0  9991,2 04084  74.0696 350.7987 0020712  85.3668 274.9856 14.46532185881352,1969-070C,4084,7115.134,99.548,751.736,722.263,0
GENERATED VIA SPACETRACK.ORG API,18 SPCS,4084,SL-8 DEB,DEBRIS,U,69070C,2024-04-17 20:32:33,411264,14.46532965,0.0020711,74.0695,349.381,83.6655,276.6862,0,999,88144,0.00012686,4.31e-06,0,4286045,0 SL-8 DEB,1  4084U 69070C   24108.85594226  .00000431  00000-0  12686-3 0  9998,2  4084  74.0695 349.3810 0020711  83.6655 276.6862 14.46532965881448,1969-070C,4084,7115.132,99.548,751.733,722.261,0
GENERATED VIA SPACETRACK.ORG API,18 SPCS,4084,SL-8 DEB,DEBRIS,U,69070C,2024-04-17 20:32:33,411264,14.46532965,0.0020711,74.0695,349.381,83.6655,276.6862,0,999,88146,0.00012686,4.31e-06,0,4286350,0 SL-8 DEB,1 04084U 69070C   24108.85594226  .00000431  00000-0  12686-3 0  9998,2 04084  74.0695 349.3810 0020711  83.6655 276.6862 14.46532965881460,1969-070C,4084,7115.132,99.548,751.733,722.261,0
GENERATED VIA SPACETRACK.ORG API,18 SPCS,4084,SL-8 DEB,DEBRIS,U,69070C,2024-04-18 03:10:54,754752,14.46533209,0.0020715,74.0695,348.8654,83.0661,277.2853,0,999,88150,0.0001299,4.42e-06,0,4287604,0 SL-8 DEB,1 04084U 69070C   24109.13257818  .00000442  00000-0  12990-3 0  9993,2 04084  74.0695 348.8654 0020715  83.0661 277.2853 14.46533209881509,1969-070C,4084,7115.131,99.548,751.735,722.257,0
GENERATED VIA SPACETRACK.ORG API,18 SPCS,4084,SL-8 DEB,DEBRIS,U,69070C,2024-04-18 19:46:48,55584,14.46533938,0.0020717,74.0694,347.5766,81.5054,278.8451,0,999,88160,0.00013392,4.57e-06,0,4288150,0 SL-8 DEB,1 04084U 69070C   24109.82416731  .00000457  00000-0  13392-3 0  9993,2 04084  74.0694 347.5766 0020717  81.5054 278.8451 14.46533938881600,1969-070C,4084,7115.129,99.548,751.734,722.253,0
GENERATED VIA SPACETRACK.ORG API,18 SPCS,4084,SL-8 DEB,DEBRIS,U,69070C,2024-04-19 02:25:09,370560,14.46534181,0.0020712,74.0695,347.0609,80.9086,279.4415,0,999,88164,0.00013452,4.59e-06,0,4289403,0 SL-8 DEB,1 04084U 69070C   24110.10080290  .00000459  00000-0  13452-3 0  9992,2 04084  74.0695 347.0609 0020712  80.9086 279.4415 14.46534181881647,1969-070C,4084,7115.128,99.548,751.73,722.256,0
GENERATED VIA SPACETRACK.ORG API,18 SPCS,4084,SL-8 DEB,DEBRIS,U,69070C,2024-04-19 19:01:02,629056,14.46535067,0.0020726,74.0694,345.7721,79.3757,280.9735,0,999,88174,0.00014487,4.97e-06,0,4290026,0 SL-8 DEB,1 04084U 69070C   24110.79239154  .00000497  00000-0  14487-3 0  9993,2 04084  74.0694 345.7721 0020726  79.3757 280.9735 14.46535067881745,1969-070C,4084,7115.125,99.548,751.737,722.243,0
GENERATED VIA SPACETRACK.ORG API,18 SPCS,4084,SL-8 DEB,DEBRIS,U,69070C,2024-04-20 01:39:23,863680,14.46535876,0.0020728,74.0694,345.2565,78.7822,281.5665,0,999,88176,0.00016233,5.6e-06,0,4290371,0 SL-8 DEB,1  4084U 69070C   24111.06902620  .00000560  00000-0  16233-3 0  9991,2  4084  74.0694 345.2565 0020728  78.7822 281.5665 14.46535876881763,1969-070C,4084,7115.122,99.548,751.736,722.239,0
GENERATED VIA SPACETRACK.ORG API,18 SPCS,4084,SL-8 DEB,DEBRIS,U,69070C,2024-04-20 01:39:23,863680,14.46535876,0.0020728,74.0694,345.2565,78.7822,281.5665,0,999,88178,0.00016233,5.6e-06,0,4291469,0 SL-8 DEB,1 04084U 69070C   24111.06902620  .00000560  00000-0  16233-3 0  9991,2 04084  74.0694 345.2565 0020728  78.7822 281.5665 14.46535876881785,1969-070C,4084,7115.122,99.548,751.736,722.239,0
GENERATED VIA SPACETRACK.ORG API,18 SPCS,4084,SL-8 DEB,DEBRIS,U,69070C,2024-04-20 19:54:52,422624,14.46536336,0.0020738,74.0693,343.8388,77.0887,283.2586,0,999,88189,0.0001504,5.17e-06,0,4292116,0 SL-8 DEB,1 04084U 69070C   24111.82977341  .00000517  00000-0  15040-3 0  9994,2 04084  74.0693 343.8388 0020738  77.0887 283.2586 14.46536336881890,1969-070C,4084,7115.121,99.548,751.741,722.23,0
GENERATED VIA SPACETRACK.ORG API,18 SPCS,4084,SL-8 DEB,DEBRIS,U,69070C,2024-04-21 02:33:13,691808,14.46536641,0.0020742,74.0692,343.3232,76.4691,283.8777,0,999,88193,0.00015052,5.17e-06,0,4292766,0 SL-8 DEB,1 04084U 69070C   24112.10640847  .00000517  00000-0  15052-3 0  9997,2 04084  74.0692 343.3232 0020742  76.4691 283.8777 14.46536641881935,1969-070C,4084,7115.12,99.548,751.743,722.227,0
GENERATED VIA SPACETRACK.ORG API,18 SPCS,4084,SL-8 DEB,DEBRIS,U,69070C,2024-04-21 22:28:17,434560,14.46538001,0.0020751,74.069,341.7764,74.6451,285.6998,0,999,88205,0.00016727,5.77e-06,0,4293451,0 SL-8 DEB,1 04084U 69070C   24112.93631290  .00000577  00000-0  16727-3 0  9996,2 04084  74.0690 341.7764 0020751  74.6451 285.6998 14.46538001882050,1969-070C,4084,7115.115,99.548,751.745,722.216,0
GENERATED VIA SPACETRACK.ORG API,18 SPCS,4084,SL-8 DEB,DEBRIS,U,69070C,2024-04-22 01:47:28,51872,14.46538191,0.0020758,74.069,341.5186,74.3409,286.0038,0,999,88205,0.00016736,5.78e-06,0,4293773,0 SL-8 DEB,1  4084U 69070C   24113.07463023  .00000578  00000-0  16736-3 0  9990,2  4084  74.0690 341.5186 0020758  74.3409 286.0038 14.46538191882053,1969-070C,4084,7115.115,99.548,751.749,722.21,0
GENERATED VIA SPACETRACK.ORG API,18 SPCS,4084,SL-8 DEB,DEBRIS,U,69070C,2024-04-22 01:47:28,51872,14.46538191,0.0020758,74.069,341.5186,74.3409,286.0038,0,999,88207,0.00016736,5.78e-06,0,4294713,0 SL-8 DEB,1 04084U 69070C   24113.07463023  .00000578  00000-0  16736-3 0  9990,2 04084  74.0690 341.5186 0020758  74.3409 286.0038 14.46538191882075,1969-070C,4084,7115.115,99.548,751.749,722.21,0
